{"type": "FeatureCollection", "features": [ {"type": "Feature", "properties": {"norad_id": 31843, "name": "FENGYUN 1C DEB", "group": "fengyun-1c-debris", "lat": -65.04434222803724, "lon": -54.11323307433284, "alt_km": 922.3970500230007, "timestamp": "2025-12-10T09:57:44.983568+00:00", "meta": {"OBJECT_NAME": "FENGYUN 1C DEB", "OBJECT_ID": "1999-025CJH", "EPOCH": "2025-12-08T02:27:13.776192", "MEAN_MOTION": 13.33674203, "ECCENTRICITY": 0.06411219, "INCLINATION": 99.2829, "RA_OF_ASC_NODE": 283.1995, "ARG_OF_PERICENTER": 5.4908, "MEAN_ANOMALY": 355.2831, "EPHEMERIS_TYPE": 0, "CLASSIFICATION_TYPE": "U", "NORAD_CAT_ID": 31843, "ELEMENT_SET_NO": 999, "REV_AT_EPOCH": 64634, "BSTAR": 0.008905189, "MEAN_MOTION_DOT": 0.00014262, "MEAN_MOTION_DDOT": 0}, "tle": {"line1": "1 31843U 99025CJH 25342.10224278  .00014262  00000+0  89052-2 0  9996", "line2": "2 31843  99.2829 283.1995 0641121   5.4908 355.2831 13.33674203646340"}}, "geometry": {"type": "Point", "coordinates": [-54.11323307433284, -65.04434222803724]}}, {"type": "Feature", "properties": {"norad_id": 31844, "name": "FENGYUN 1C DEB", "group": "fengyun-1c-debris", "lat": 43.1380226972785, "lon": -37.10935920708418, "alt_km": 771.1554022264972, "timestamp": "2025-12-10T09:57:44.983578+00:00", "meta": {"OBJECT_NAME": "FENGYUN 1C DEB", "OBJECT_ID": "1999-025CJJ", "EPOCH": "2025-12-09T05:00:24.037056", "MEAN_MOTION": 14.19725395, "ECCENTRICITY": 0.010355, "INCLINATION": 100.2998, "RA_OF_ASC_NODE": 331.2997, "ARG_OF_PERICENTER": 0.53, "MEAN_ANOMALY": 359.5963, "EPHEMERIS_TYPE": 0, "CLASSIFICATION_TYPE": "U", "NORAD_CAT_ID": 31844, "ELEMENT_SET_NO": 999, "REV_AT_EPOCH": 95282, "BSTAR": 0.0014495, "MEAN_MOTION_DOT": 3.18e-05, "MEAN_MOTION_DDOT": 0}, "tle": {"line1": "1 31844U 99025CJJ 25343.20861154  .00003180  00000+0  14495-2 0  9995", "line2": "2 31844 100.2998 331.2997 0103550   0.5300 359.5963 14.19725395952829"}}, "geometry": {"type": "Point", "coordinates": [-37.10935920708418, 43.1380226972785]}}, {"type": "Feature", "properties": {"norad_id": 31850, "name": "FENGYUN 1C DEB", "group": "fengyun-1c-debris", "lat": 32.21851558715562, "lon": 23.160340975469794, "alt_km": 443.90431505898687, "timestamp": "2025-12-10T09:57:44.983588+00:00", "meta": {"OBJECT_NAME": "FENGYUN 1C DEB", "OBJECT_ID": "1999-025CJQ", "EPOCH": "2025-12-09T08:44:34.015776", "MEAN_MOTION": 15.32050341, "ECCENTRICITY": 0.00780918, "INCLINATION": 98.5738, "RA_OF_ASC_NODE": 27.4006, "ARG_OF_PERICENTER": 100.9278, "MEAN_ANOMALY": 260.0759, "EPHEMERIS_TYPE": 0, "CLASSIFICATION_TYPE": "U", "NORAD_CAT_ID": 31850, "ELEMENT_SET_NO": 999, "REV_AT_EPOCH": 65777, "BSTAR": 0.0034947608, "MEAN_MOTION_DOT": 0.00120564, "MEAN_MOTION_DDOT": 0}, "tle": {"line1": "1 31850U 99025CJQ 25343.36428259  .00120564  00000+0  34948-2 0  9995", "line2": "2 31850  98.5738  27.4006 0078091 100.9278 260.0759 15.32050341657775"}}, "geometry": {"type": "Point", "coordinates": [23.160340975469794, 32.21851558715562]}}, {"type": "Feature", "properties": {"norad_id": 31854, "name": "FENGYUN 1C DEB", "group": "fengyun-1c-debris", "lat": 47.01653416016946, "lon": 177.30155635249213, "alt_km": 828.3742588687819, "timestamp": "2025-12-10T09:57:44.983598+00:00", "meta": {"OBJECT_NAME": "FENGYUN 1C DEB", "OBJECT_ID": "1999-025CJU", "EPOCH": "2025-12-09T17:55:56.527392", "MEAN_MOTION": 14.03067667, "ECCENTRICITY": 0.0072222, "INCLINATION": 98.8471, "RA_OF_ASC_NODE": 347.0322, "ARG_OF_PERICENTER": 149.3784, "MEAN_ANOMALY": 211.1628, "EPHEMERIS_TYPE": 0, "CLASSIFICATION_TYPE": "U", "NORAD_CAT_ID": 31854, "ELEMENT_SET_NO": 999, "REV_AT_EPOCH": 69230, "BSTAR": 0.00055835, "MEAN_MOTION_DOT": 8.46e-06, "MEAN_MOTION_DDOT": 0}, "tle": {"line1": "1 31854U 99025CJU 25343.74718203  .00000846  00000+0  55835-3 0  9991", "line2": "2 31854  98.8471 347.0322 0072222 149.3784 211.1628 14.03067667692303"}}, "geometry": {"type": "Point", "coordinates": [177.30155635249213, 47.01653416016946]}}, {"type": "Feature", "properties": {"norad_id": 31857, "name": "FENGYUN 1C DEB", "group": "fengyun-1c-debris", "lat": -57.65740065530929, "lon": -175.0354476784662, "alt_km": 885.9364037276755, "timestamp": "2025-12-10T09:57:44.983609+00:00", "meta": {"OBJECT_NAME": "FENGYUN 1C DEB", "OBJECT_ID": "1999-025CJX", "EPOCH": "2025-12-08T09:09:37.694592", "MEAN_MOTION": 13.61900061, "ECCENTRICITY": 0.0309157, "INCLINATION": 96.1892, "RA_OF_ASC_NODE": 13.5368, "ARG_OF_PERICENTER": 294.2443, "MEAN_ANOMALY": 62.6695, "EPHEMERIS_TYPE": 0, "CLASSIFICATION_TYPE": "U", "NORAD_CAT_ID": 31857, "ELEMENT_SET_NO": 999, "REV_AT_EPOCH": 61570, "BSTAR": 0.0028041545, "MEAN_MOTION_DOT": 2.946e-05, "MEAN_MOTION_DDOT": 0}, "tle": {"line1": "1 31857U 99025CJX 25342.38168628  .00002946  00000+0  28042-2 0  9995", "line2": "2 31857  96.1892  13.5368 0309157 294.2443  62.6695 13.61900061615700"}}, "geometry": {"type": "Point", "coordinates": [-175.0354476784662, -57.65740065530929]}}, {"type": "Feature", "properties": {"norad_id": 31861, "name": "FENGYUN 1C DEB", "group": "fengyun-1c-debris", "lat": 71.38497464566112, "lon": 37.11816682181774, "alt_km": 1224.767148090984, "timestamp": "2025-12-10T09:57:44.983619+00:00", "meta": {"OBJECT_NAME": "FENGYUN 1C DEB", "OBJECT_ID": "1999-025CKB", "EPOCH": "2025-11-30T18:20:57.621120", "MEAN_MOTION": 13.30200627, "ECCENTRICITY": 0.04966148, "INCLINATION": 102.3423, "RA_OF_ASC_NODE": 165.0071, "ARG_OF_PERICENTER": 230.9853, "MEAN_ANOMALY": 124.6046, "EPHEMERIS_TYPE": 0, "CLASSIFICATION_TYPE": "U", "NORAD_CAT_ID": 31861, "ELEMENT_SET_NO": 999, "REV_AT_EPOCH": 66608, "BSTAR": 0.0034105388, "MEAN_MOTION_DOT": 3.105e-05, "MEAN_MOTION_DDOT": 0}, "tle": {"line1": "1 31861U 99025CKB 25334.76455580  .00003105  00000+0  34105-2 0  9994", "line2": "2 31861 102.3423 165.0071 0496614 230.9853 124.6046 13.30200627666089"}}, "geometry": {"type": "Point", "coordinates": [37.11816682181774, 71.38497464566112]}}, {"type": "Feature", "properties": {"norad_id": 31877, "name": "FENGYUN 1C DEB", "group": "fengyun-1c-debris", "lat": -58.670622680155006, "lon": 69.36259591633997, "alt_km": 499.225133441877, "timestamp": "2025-12-10T09:57:44.983630+00:00", "meta": {"OBJECT_NAME": "FENGYUN 1C DEB", "OBJECT_ID": "1999-025CKC", "EPOCH": "2025-12-09T03:50:05.752320", "MEAN_MOTION": 15.01374906, "ECCENTRICITY": 0.01043486, "INCLINATION": 99.0021, "RA_OF_ASC_NODE": 52.8128, "ARG_OF_PERICENTER": 290.6612, "MEAN_ANOMALY": 68.3445, "EPHEMERIS_TYPE": 0, "CLASSIFICATION_TYPE": "U", "NORAD_CAT_ID": 31877, "ELEMENT_SET_NO": 999, "REV_AT_EPOCH": 98988, "BSTAR": 0.0010090506, "MEAN_MOTION_DOT": 0.00014555, "MEAN_MOTION_DDOT": 0}, "tle": {"line1": "1 31877U 99025CKC 25343.15978880  .00014555  00000+0  10091-2 0  9996", "line2": "2 31877  99.0021  52.8128 0104348 290.6612  68.3445 15.01374906989889"}}, "geometry": {"type": "Point", "coordinates": [69.36259591633997, -58.670622680155006]}}, {"type": "Feature", "properties": {"norad_id": 31878, "name": "FENGYUN 1C DEB", "group": "fengyun-1c-debris", "lat": -67.17875434251997, "lon": -69.17755244546962, "alt_km": 576.3132659261437, "timestamp": "2025-12-10T09:57:44.983641+00:00", "meta": {"OBJECT_NAME": "FENGYUN 1C DEB", "OBJECT_ID": "1999-025CKD", "EPOCH": "2025-12-03T00:27:41.548032", "MEAN_MOTION": 14.85464766, "ECCENTRICITY": 0.00842743, "INCLINATION": 99.4399, "RA_OF_ASC_NODE": 258.7733, "ARG_OF_PERICENTER": 269.6043, "MEAN_ANOMALY": 89.551, "EPHEMERIS_TYPE": 0, "CLASSIFICATION_TYPE": "U", "NORAD_CAT_ID": 31878, "ELEMENT_SET_NO": 999, "REV_AT_EPOCH": 97949, "BSTAR": 0.0019397439, "MEAN_MOTION_DOT": 0.000178, "MEAN_MOTION_DDOT": 0}, "tle": {"line1": "1 31878U 99025CKD 25337.01923088  .00017800  00000+0  19397-2 0  9999", "line2": "2 31878  99.4399 258.7733 0084274 269.6043  89.5510 14.85464766979499"}}, "geometry": {"type": "Point", "coordinates": [-69.17755244546962, -67.17875434251997]}}, {"type": "Feature", "properties": {"norad_id": 31879, "name": "FENGYUN 1C DEB", "group": "fengyun-1c-debris", "lat": 74.13001322947545, "lon": -174.46868238505945, "alt_km": 616.6950512852263, "timestamp": "2025-12-10T09:57:44.983651+00:00", "meta": {"OBJECT_NAME": "FENGYUN 1C DEB", "OBJECT_ID": "1999-025CKE", "EPOCH": "2025-12-08T21:00:20.768832", "MEAN_MOTION": 14.42886118, "ECCENTRICITY": 0.0210002, "INCLINATION": 99.7089, "RA_OF_ASC_NODE": 220.8068, "ARG_OF_PERICENTER": 47.917, "MEAN_ANOMALY": 313.9665, "EPHEMERIS_TYPE": 0, "CLASSIFICATION_TYPE": "U", "NORAD_CAT_ID": 31879, "ELEMENT_SET_NO": 999, "REV_AT_EPOCH": 63154, "BSTAR": 0.00045011, "MEAN_MOTION_DOT": 1.897e-05, "MEAN_MOTION_DDOT": 0}, "tle": {"line1": "1 31879U 99025CKE 25342.87524038  .00001897  00000+0  45011-3 0  9994", "line2": "2 31879  99.7089 220.8068 0210002  47.9170 313.9665 14.42886118631546"}}, "geometry": {"type": "Point", "coordinates": [-174.46868238505945, 74.13001322947545]}}, {"type": "Feature", "properties": {"norad_id": 31880, "name": "FENGYUN 1C DEB", "group": "fengyun-1c-debris", "lat": 71.12293918063307, "lon": 115.88127270191637, "alt_km": 912.7517444343857, "timestamp": "2025-12-10T09:57:44.983661+00:00", "meta": {"OBJECT_NAME": "FENGYUN 1C DEB", "OBJECT_ID": "1999-025CKF", "EPOCH": "2025-12-07T17:39:23.204736", "MEAN_MOTION": 13.89389039, "ECCENTRICITY": 0.01282018, "INCLINATION": 100.0287, "RA_OF_ASC_NODE": 144.1639, "ARG_OF_PERICENTER": 164.9392, "MEAN_ANOMALY": 195.5637, "EPHEMERIS_TYPE": 0, "CLASSIFICATION_TYPE": "U", "NORAD_CAT_ID": 31880, "ELEMENT_SET_NO": 999, "REV_AT_EPOCH": 62910, "BSTAR": 0.00081356926, "MEAN_MOTION_DOT": 1.01e-05, "MEAN_MOTION_DDOT": 0}, "tle": {"line1": "1 31880U 99025CKF 25341.73568524  .00001010  00000+0  81357-3 0  9998", "line2": "2 31880 100.0287 144.1639 0128201 164.9392 195.5637 13.89389039629103"}}, "geometry": {"type": "Point", "coordinates": [115.88127270191637, 71.12293918063307]}}]}